[{"OBJECT_NAME":"STARLINK-3398","OBJECT_ID":"2022-005S","EPOCH":"2026-03-09T22:05:57.854400","MEAN_MOTION":15.088389,"ECCENTRICITY":0.00014316,"INCLINATION":53.2187,"RA_OF_ASC_NODE":288.0944,"ARG_OF_PERICENTER":87.3193,"MEAN_ANOMALY":272.7963,"EPHEMERIS_TYPE":0,"CLASSIFICATION_TYPE":"U","NORAD_CAT_ID":51120,"ELEMENT_SET_NO":999,"REV_AT_EPOCH":22891,"BSTAR":8.364056e-6,"MEAN_MOTION_DOT":-1.55e-6,"MEAN_MOTION_DDOT":0},{"OBJECT_NAME":"ICEYE-X37","OBJECT_ID":"2024-043E","EPOCH":"2026-03-09T21:28:27.980256","MEAN_MOTION":15.05207146,"ECCENTRICITY":0.00148076,"INCLINATION":97.8149,"RA_OF_ASC_NODE":204.4924,"ARG_OF_PERICENTER":351.2295,"MEAN_ANOMALY":8.867,"EPHEMERIS_TYPE":0,"CLASSIFICATION_TYPE":"U","NORAD_CAT_ID":59102,"ELEMENT_SET_NO":999,"REV_AT_EPOCH":11014,"BSTAR":0.00044484532,"MEAN_MOTION_DOT":6.299e-5,"MEAN_MOTION_DDOT":0}]
